[{"OBJECT_NAME":"PERSEUS-M1","OBJECT_ID":"2014-033AF","EPOCH":"2026-03-09T17:46:59.181600","MEAN_MOTION":14.95254642,"ECCENTRICITY":0.00100578,"INCLINATION":97.9555,"RA_OF_ASC_NODE":11.3245,"ARG_OF_PERICENTER":268.322,"MEAN_ANOMALY":91.6848,"EPHEMERIS_TYPE":0,"CLASSIFICATION_TYPE":"U","NORAD_CAT_ID":40039,"ELEMENT_SET_NO":999,"REV_AT_EPOCH":63577,"BSTAR":0.00021947731,"MEAN_MOTION_DOT":2.357e-5,"MEAN_MOTION_DDOT":0},{"OBJECT_NAME":"CZ-6A DEB","OBJECT_ID":"2024-140JB","EPOCH":"2026-03-09T22:07:15.667968","MEAN_MOTION":14.69602052,"ECCENTRICITY":0.01342116,"INCLINATION":88.72,"RA_OF_ASC_NODE":261.6605,"ARG_OF_PERICENTER":139.244,"MEAN_ANOMALY":221.8914,"EPHEMERIS_TYPE":0,"CLASSIFICATION_TYPE":"U","NORAD_CAT_ID":60848,"ELEMENT_SET_NO":999,"REV_AT_EPOCH":8242,"BSTAR":0.0030457487,"MEAN_MOTION_DOT":0.00020848,"MEAN_MOTION_DDOT":0}]
